LEMUR-1                 
1 40044U 14033AL  24253.20341954  .00008460  00000+0  11028-2 0  9998
2 40044  97.7095  51.8124 0054216  34.1354 326.3325 14.79765450550125